[{"OBJECT_NAME":"OBJECT G","OBJECT_ID":"2025-274G","EPOCH":"2026-03-09T18:19:14.904480","MEAN_MOTION":14.92900769,"ECCENTRICITY":0.00131843,"INCLINATION":97.7442,"RA_OF_ASC_NODE":359.5118,"ARG_OF_PERICENTER":335.9789,"MEAN_ANOMALY":24.0813,"EPHEMERIS_TYPE":0,"CLASSIFICATION_TYPE":"U","NORAD_CAT_ID":66656,"ELEMENT_SET_NO":999,"REV_AT_EPOCH":1538,"BSTAR":0.00037270801,"MEAN_MOTION_DOT":3.814e-5,"MEAN_MOTION_DDOT":0},{"OBJECT_NAME":"DELTA 2 R\/B(1)","OBJECT_ID":"1992-089B","EPOCH":"2026-03-09T21:18:04.780512","MEAN_MOTION":14.95843552,"ECCENTRICITY":0.00502643,"INCLINATION":20.2848,"RA_OF_ASC_NODE":268.5776,"ARG_OF_PERICENTER":187.692,"MEAN_ANOMALY":172.2737,"EPHEMERIS_TYPE":0,"CLASSIFICATION_TYPE":"U","NORAD_CAT_ID":22276,"ELEMENT_SET_NO":999,"REV_AT_EPOCH":77681,"BSTAR":0.00031307363,"MEAN_MOTION_DOT":4.132e-5,"MEAN_MOTION_DDOT":0}]
